STARLINK-32786          
1 62528U 25004T   26068.42956381  .00046990  00000+0  17049-2 0  9994
2 62528  43.0000 220.9248 0001643 257.5437 102.5230 15.27605327 65479
2025-155V               
1 64895U 25155V   26068.85787115  .00013705  00000+0  51002-3 0  9990
2 64895  97.4485  37.2490 0008035 152.8264 207.3397 15.27583301 65579
